STARLINK-33545          
1 62101U 24220P   26068.42503775  .00039641  00000+0  14410-2 0  9999
2 62101  43.0013 206.7886 0003104 295.1029  64.9501 15.27607917 72982
2025-155V               
1 64895U 25155V   26068.85787115  .00013705  00000+0  51002-3 0  9990
2 64895  97.4485  37.2490 0008035 152.8264 207.3397 15.27583301 65579
